OBJECT_NAME,OBJECT_ID,EPOCH,MEAN_MOTION,ECCENTRICITY,INCLINATION,RA_OF_ASC_NODE,ARG_OF_PERICENTER,MEAN_ANOMALY,EPHEMERIS_TYPE,CLASSIFICATION_TYPE,NORAD_CAT_ID,ELEMENT_SET_NO,REV_AT_EPOCH,BSTAR,MEAN_MOTION_DOT,MEAN_MOTION_DDOT
STARLINK-3543,2022-016C,2026-06-08T11:48:39.225024,15.08831831,.0001192,53.1697,281.4490,130.5871,229.5224,0,U,51716,999,23713,-.66505E-4,-.1346E-4,0
STARLINK-3445,2022-016D,2026-06-08T11:55:20.244576,15.08777309,.0000921,53.1690,281.5141,116.5725,243.5361,0,U,51717,999,23713,.74148E-3,.11513E-3,0
STARLINK-3546,2022-016E,2026-06-08T11:58:58.675872,15.19481903,.0001989,53.2098,273.3391,205.0375,155.0526,0,U,51718,999,23837,.64752E-3,.13615E-3,0
STARLINK-3540,2022-016F,2026-06-08T11:43:20.277696,15.08835536,.0001003,53.1677,281.5429,85.4983,274.6123,0,U,51719,999,23713,.48653E-4,.486E-5,0
STARLINK-3526,2022-016G,2026-06-08T01:40:37.253568,15.08823449,.00012001,53.1699,283.3196,96.3482,263.7646,0,U,51720,999,23706,-.1265431E-3,-.23E-4,0
STARLINK-3524,2022-016H,2026-06-08T11:28:49.089216,15.08845585,.0001056,53.1685,281.5229,75.7928,284.3181,0,U,51721,999,23713,-.1016E-3,-.1905E-4,0
STARLINK-3535,2022-016J,2026-06-07T16:01:36.053760,15.08916312,.0000995,53.1702,285.1502,102.4452,257.6651,0,U,51722,999,23700,-.11679457E-2,-.18867E-3,0
STARLINK-3529,2022-016L,2026-06-08T12:31:01.475040,15.08834119,.0001099,53.1689,281.3149,85.2943,274.8174,0,U,51724,999,23713,.62123E-4,.701E-5,0
STARLINK-3522,2022-016M,2026-06-08T12:46:55.123680,15.08838073,.0001335,53.1699,281.2650,74.3015,285.8124,0,U,51725,999,23713,.8832E-4,.1118E-4,0
STARLINK-3527,2022-016N,2026-06-08T11:51:05.806080,15.11463713,.0000291,53.2147,270.7576,21.7849,338.3157,0,U,51726,999,23728,.10552E-2,.17804E-3,0
STARLINK-3532,2022-016P,2026-06-08T12:36:20.361888,15.08830656,.0001295,53.1687,281.3005,107.6491,252.4642,0,U,51727,999,23713,-.79388E-4,-.1551E-4,0
STARLINK-3523,2022-016R,2026-06-08T12:00:33.043680,15.08835467,.0001066,53.1701,271.4101,89.1357,270.9756,0,U,51729,999,23727,.79284E-4,.974E-5,0
STARLINK-3514,2022-016T,2026-06-08T11:49:56.214336,15.08854445,.0001018,53.1690,271.4429,93.0890,267.0218,0,U,51731,999,23727,.2092E-3,.3044E-4,0
STARLINK-3518,2022-016U,2026-06-08T11:28:45.482880,15.08834971,.000121,53.1686,271.5134,87.2197,272.8933,0,U,51732,999,23841,-.51016E-5,-.369E-5,0
STARLINK-3525,2022-016V,2026-06-08T11:40:44.157216,15.08828289,.0001324,53.1687,271.4828,99.3654,260.7487,0,U,51733,999,23727,.13874E-3,.192E-4,0
STARLINK-3450,2022-016W,2026-06-08T11:12:51.592320,15.08832133,.0001191,53.1694,271.5637,84.4849,275.6278,0,U,51734,999,23726,.53274E-4,.56E-5,0
STARLINK-3517,2022-016X,2026-06-08T11:23:27.600864,15.08836858,.0001152,53.1676,271.5265,69.7362,290.3754,0,U,51735,999,23727,-.16009E-4,-.543E-5,0
STARLINK-3447,2022-016Y,2026-06-08T11:14:15.260352,15.08831157,.0001284,53.1695,271.6467,84.8407,275.2731,0,U,51736,999,23726,.22109E-4,.64E-6,0
STARLINK-3509,2022-016Z,2026-06-08T11:18:09.565920,15.08833190,.0001096,53.1678,271.5430,82.9368,277.1748,0,U,51737,999,23726,.15069E-4,-.48E-6,0
STARLINK-3515,2022-016AA,2026-06-08T12:27:02.960064,15.08830710,.0001406,53.1681,271.3294,108.5968,251.5176,0,U,51738,999,23727,-.12826E-4,-.492E-5,0
STARLINK-3516,2022-016AB,2026-06-08T11:07:33.897792,15.08826621,.0001204,53.1686,271.5779,81.8292,278.2836,0,U,51739,999,23726,-.24213E-4,-.673E-5,0
STARLINK-3500,2022-016AC,2026-06-08T12:16:26.845248,15.08836246,.0001074,53.1699,271.3595,89.2957,270.8157,0,U,51740,999,23727,.59405E-4,.658E-5,0
STARLINK-3520,2022-016AD,2026-06-08T12:33:43.737696,15.08830759,.0000983,53.1669,271.3201,82.5702,277.5402,0,U,51741,999,23727,.205E-4,.38E-6,0
STARLINK-3521,2022-016AE,2026-06-08T11:02:18.312288,15.08823329,.0001086,53.1673,271.7851,70.3135,289.7974,0,U,51742,999,23726,-.57488E-4,-.1202E-4,0
STARLINK-3512,2022-016AF,2026-06-08T11:03:34.646688,15.08827291,.0001448,53.1689,261.5113,86.2651,273.8506,0,U,51743,999,23740,-.19335E-4,-.596E-5,0
STARLINK-3452,2022-016AG,2026-06-08T12:05:51.201312,15.08838329,.0001122,53.1702,271.4223,87.6616,272.4504,0,U,51744,999,23727,.48182E-4,.479E-5,0
STARLINK-3449,2022-016AH,2026-06-08T12:21:44.640000,15.08837105,.0001581,53.1707,271.3443,86.5600,273.5572,0,U,51745,999,23727,-.16332E-3,-.2886E-4,0
STARLINK-3502,2022-016AJ,2026-06-08T11:10:17.484960,15.08774704,.0000993,53.1687,261.5778,113.7126,246.3969,0,U,51746,999,23740,.8424E-3,.13121E-3,0
STARLINK-3446,2022-016AK,2026-06-08T12:12:32.161248,15.08837782,.0001314,53.1692,271.4214,63.3636,296.7490,0,U,51747,999,23727,.37177E-4,.304E-5,0
STARLINK-3501,2022-016AL,2026-06-08T12:33:40.330944,15.08825280,.000093,53.1665,261.3062,80.7274,279.3822,0,U,51748,999,23741,.70754E-4,.838E-5,0
