STARLINK-3543           
1 51716U 22016C   26159.49212066 -.00001346  00000+0 -66505-4 0  9995
2 51716  53.1697 281.4490 0001192 130.5871 229.5224 15.08831831237139
STARLINK-3445           
1 51717U 22016D   26159.49676209  .00011513  00000+0  74148-3 0  9995
2 51717  53.1690 281.5141 0000921 116.5725 243.5361 15.08777309237135
STARLINK-3546           
1 51718U 22016E   26159.49929023  .00013615  00000+0  64752-3 0  9996
2 51718  53.2098 273.3391 0001989 205.0375 155.0526 15.19481903238376
STARLINK-3540           
1 51719U 22016F   26159.48842914  .00000486  00000+0  48653-4 0  9994
2 51719  53.1677 281.5429 0001003  85.4983 274.6123 15.08835536237131
STARLINK-3526           
1 51720U 22016G   26159.06987562 -.00002300  00000+0 -12654-3 0  9999
2 51720  53.1699 283.3196 0001200  96.3482 263.7646 15.08823449237063
STARLINK-3524           
1 51721U 22016H   26159.47834594 -.00001905  00000+0 -10160-3 0  9991
2 51721  53.1685 281.5229 0001056  75.7928 284.3181 15.08845585237137
STARLINK-3535           
1 51722U 22016J   26158.66777840 -.00018867  00000+0 -11679-2 0  9992
2 51722  53.1702 285.1502 0000995 102.4452 257.6651 15.08916312237001
STARLINK-3529           
1 51724U 22016L   26159.52154485  .00000701  00000+0  62123-4 0  9992
2 51724  53.1689 281.3149 0001099  85.2943 274.8174 15.08834119237130
STARLINK-3522           
1 51725U 22016M   26159.53258245  .00001118  00000+0  88320-4 0  9993
2 51725  53.1699 281.2650 0001335  74.3015 285.8124 15.08838073237130
STARLINK-3527           
1 51726U 22016N   26159.49381720  .00017804  00000+0  10552-2 0  9993
2 51726  53.2147 270.7576 0000291  21.7849 338.3157 15.11463713237286
STARLINK-3532           
1 51727U 22016P   26159.52523567 -.00001551  00000+0 -79388-4 0  9993
2 51727  53.1687 281.3005 0001295 107.6491 252.4642 15.08830656237131
STARLINK-3523           
1 51729U 22016R   26159.50038245  .00000974  00000+0  79284-4 0  9998
2 51729  53.1701 271.4101 0001066  89.1357 270.9756 15.08835467237279
STARLINK-3514           
1 51731U 22016T   26159.49301174  .00003044  00000+0  20920-3 0  9996
2 51731  53.1690 271.4429 0001018  93.0890 267.0218 15.08854445237272
STARLINK-3518           
1 51732U 22016U   26159.47830420 -.00000369  00000+0 -51016-5 0  9997
2 51732  53.1686 271.5134 0001210  87.2197 272.8933 15.08834971238418
STARLINK-3525           
1 51733U 22016V   26159.48662219  .00001920  00000+0  13874-3 0  9998
2 51733  53.1687 271.4828 0001324  99.3654 260.7487 15.08828289237275
STARLINK-3450           
1 51734U 22016W   26159.46726380  .00000560  00000+0  53274-4 0  9995
2 51734  53.1694 271.5637 0001191  84.4849 275.6278 15.08832133237261
STARLINK-3517           
1 51735U 22016X   26159.47462501 -.00000543  00000+0 -16009-4 0  9997
2 51735  53.1676 271.5265 0001152  69.7362 290.3754 15.08836858237274
STARLINK-3447           
1 51736U 22016Y   26159.46823218  .00000064  00000+0  22109-4 0  9997
2 51736  53.1695 271.6467 0001284  84.8407 275.2731 15.08831157237268
STARLINK-3509           
1 51737U 22016Z   26159.47094405 -.00000048  00000+0  15069-4 0  9997
2 51737  53.1678 271.5430 0001096  82.9368 277.1748 15.08833190237263
STARLINK-3515           
1 51738U 22016AA  26159.51878426 -.00000492  00000+0 -12826-4 0  9998
2 51738  53.1681 271.3294 0001406 108.5968 251.5176 15.08830710237277
STARLINK-3516           
1 51739U 22016AB  26159.46358678 -.00000673  00000+0 -24213-4 0  9999
2 51739  53.1686 271.5779 0001204  81.8292 278.2836 15.08826621237266
STARLINK-3500           
1 51740U 22016AC  26159.51142182  .00000658  00000+0  59405-4 0  9990
2 51740  53.1699 271.3595 0001074  89.2957 270.8157 15.08836246237270
STARLINK-3520           
1 51741U 22016AD  26159.52342289  .00000038  00000+0  20500-4 0  9998
2 51741  53.1669 271.3201 0000983  82.5702 277.5402 15.08830759237274
STARLINK-3521           
1 51742U 22016AE  26159.45993417 -.00001202  00000+0 -57488-4 0  9997
2 51742  53.1673 271.7851 0001086  70.3135 289.7974 15.08823329237268
STARLINK-3512           
1 51743U 22016AF  26159.46081767 -.00000596  00000+0 -19335-4 0  9999
2 51743  53.1689 261.5113 0001448  86.2651 273.8506 15.08827291237408
STARLINK-3452           
1 51744U 22016AG  26159.50406483  .00000479  00000+0  48182-4 0  9991
2 51744  53.1702 271.4223 0001122  87.6616 272.4504 15.08838329237274
STARLINK-3449           
1 51745U 22016AH  26159.51510000 -.00002886  00000+0 -16332-3 0  9991
2 51745  53.1707 271.3443 0001581  86.5600 273.5572 15.08837105237271
STARLINK-3502           
1 51746U 22016AJ  26159.46548015  .00013121  00000+0  84240-3 0  9998
2 51746  53.1687 261.5778 0000993 113.7126 246.3969 15.08774704237401
STARLINK-3446           
1 51747U 22016AK  26159.50870557  .00000304  00000+0  37177-4 0  9990
2 51747  53.1692 271.4214 0001314  63.3636 296.7490 15.08837782237276
STARLINK-3501           
1 51748U 22016AL  26159.52338346  .00000838  00000+0  70754-4 0  9998
2 51748  53.1665 261.3062 0000930  80.7274 279.3822 15.08825280237412
